[
  {
    "id": 1,
    "name": "Peyton Manning",
    "phone": "(303) 567-8910",
    "address": {
      "street": "1234 Main Street",
      "city": "Greenwood Village",
      "state": "CO",
      "zip": "80111"
    }
  },
  {
    "id": 2,
    "name": "Demaryius Thomas",
    "phone": "(720) 213-9876",
    "address": {
      "street": "5555 Marion Street",
      "city": "Denver",
      "state": "CO",
      "zip": "80202"
    }
  },
  {
    "id": 3,
    "name": "Von Miller",
    "phone": "(917) 323-2333",
    "address": {
      "street": "14 Mountain Way",
      "city": "Vail",
      "state": "CO",
      "zip": "81657"
    }
  },
  {
  "id": 201,
  "name": "Jolynn Bratch",
  "phone": "1-(540)250-8049",
  "address": {
    "street": "4431 Lyons Road",
    "city": "Roanoke",
    "state": "Virginia",
    "zip": "24004"
  }
}, {
  "id": 202,
  "name": "Tadd Woltman",
  "phone": "1-(720)119-8598",
  "address": {
    "street": "513 Miller Crossing",
    "city": "Denver",
    "state": "Colorado",
    "zip": "80209"
  }
}, {
  "id": 203,
  "name": "Fan Jiroutek",
  "phone": "1-(404)196-1652",
  "address": {
    "street": "45 Pierstorff Road",
    "city": "Marietta",
    "state": "Georgia",
    "zip": "30066"
  }
}, {
  "id": 4,
  "name": "Verney Bachnic",
  "phone": "1-(561)449-7913",
  "address": {
    "street": "84 Homewood Trail",
    "city": "Boynton Beach",
    "state": "Florida",
    "zip": "33436"
  }
}, {
  "id": 5,
  "name": "Quinn Armer",
  "phone": "1-(202)760-5390",
  "address": {
    "street": "40258 Dahle Terrace",
    "city": "Alexandria",
    "state": "Virginia",
    "zip": "22301"
  }
}, {
  "id": 6,
  "name": "Doro Drinan",
  "phone": "1-(713)219-6798",
  "address": {
    "street": "519 Rockefeller Crossing",
    "city": "Houston",
    "state": "Texas",
    "zip": "77260"
  }
}, {
  "id": 7,
  "name": "Nike Dossett",
  "phone": "1-(212)833-7663",
  "address": {
    "street": "70 John Wall Parkway",
    "city": "New York City",
    "state": "New York",
    "zip": "10024"
  }
}, {
  "id": 8,
  "name": "Jacky Anthoin",
  "phone": "1-(704)103-2190",
  "address": {
    "street": "53 Merrick Lane",
    "city": "Charlotte",
    "state": "North Carolina",
    "zip": "28230"
  }
}, {
  "id": 9,
  "name": "Zebedee Laying",
  "phone": "1-(951)972-6712",
  "address": {
    "street": "574 Pleasure Road",
    "city": "Riverside",
    "state": "California",
    "zip": "92519"
  }
}, {
  "id": 10,
  "name": "Lanny Byk",
  "phone": "1-(920)435-3339",
  "address": {
    "street": "051 Columbus Park",
    "city": "Green Bay",
    "state": "Wisconsin",
    "zip": "54313"
  }
}, {
  "id": 11,
  "name": "Barnie Blayney",
  "phone": "1-(434)803-4746",
  "address": {
    "street": "38740 Wayridge Circle",
    "city": "Charlottesville",
    "state": "Virginia",
    "zip": "22903"
  }
}, {
  "id": 12,
  "name": "Jackqueline Swallwell",
  "phone": "1-(651)974-2366",
  "address": {
    "street": "34854 Village Green Crossing",
    "city": "Saint Paul",
    "state": "Minnesota",
    "zip": "55188"
  }
}, {
  "id": 13,
  "name": "Carin Newsham",
  "phone": "1-(559)137-3742",
  "address": {
    "street": "2620 Walton Crossing",
    "city": "Fresno",
    "state": "California",
    "zip": "93786"
  }
}, {
  "id": 14,
  "name": "Jackelyn Imlock",
  "phone": "1-(504)308-0100",
  "address": {
    "street": "73 Michigan Junction",
    "city": "New Orleans",
    "state": "Louisiana",
    "zip": "70142"
  }
}, {
  "id": 15,
  "name": "Hetty Style",
  "phone": "1-(260)650-8242",
  "address": {
    "street": "09760 American Street",
    "city": "Fort Wayne",
    "state": "Indiana",
    "zip": "46814"
  }
}, {
  "id": 16,
  "name": "Ritchie Trengrouse",
  "phone": "1-(812)855-7600",
  "address": {
    "street": "19001 Lerdahl Crossing",
    "city": "Evansville",
    "state": "Indiana",
    "zip": "47737"
  }
}, {
  "id": 17,
  "name": "La verne Wooding",
  "phone": "1-(704)156-4436",
  "address": {
    "street": "84172 Canary Circle",
    "city": "Winston Salem",
    "state": "North Carolina",
    "zip": "27105"
  }
}, {
  "id": 18,
  "name": "Boigie Weyman",
  "phone": "1-(713)106-5100",
  "address": {
    "street": "56 Lighthouse Bay Center",
    "city": "Houston",
    "state": "Texas",
    "zip": "77065"
  }
}, {
  "id": 19,
  "name": "Vallie Boater",
  "phone": "1-(201)903-3621",
  "address": {
    "street": "13496 Magdeline Street",
    "city": "Paterson",
    "state": "New Jersey",
    "zip": "07522"
  }
}, {
  "id": 20,
  "name": "Caleb Rumsey",
  "phone": "1-(361)885-7788",
  "address": {
    "street": "4648 Swallow Crossing",
    "city": "Corpus Christi",
    "state": "Texas",
    "zip": "78475"
  }
}, {
  "id": 21,
  "name": "Lyssa Neilands",
  "phone": "1-(419)948-0780",
  "address": {
    "street": "85 Paget Alley",
    "city": "Toledo",
    "state": "Ohio",
    "zip": "43610"
  }
}, {
  "id": 22,
  "name": "Allina Patley",
  "phone": "1-(501)840-3141",
  "address": {
    "street": "3306 Birchwood Plaza",
    "city": "Little Rock",
    "state": "Arkansas",
    "zip": "72204"
  }
}, {
  "id": 23,
  "name": "Sherri Gooderick",
  "phone": "1-(231)483-5114",
  "address": {
    "street": "5082 Dottie Junction",
    "city": "Muskegon",
    "state": "Michigan",
    "zip": "49444"
  }
}, {
  "id": 24,
  "name": "Deonne Vivian",
  "phone": "1-(405)702-5538",
  "address": {
    "street": "867 Calypso Street",
    "city": "Oklahoma City",
    "state": "Oklahoma",
    "zip": "73179"
  }
}, {
  "id": 25,
  "name": "Arney Bailiss",
  "phone": "1-(775)609-1372",
  "address": {
    "street": "00 Lighthouse Bay Circle",
    "city": "Reno",
    "state": "Nevada",
    "zip": "89595"
  }
}, {
  "id": 26,
  "name": "Clea Dingivan",
  "phone": "1-(818)870-7459",
  "address": {
    "street": "4751 Annamark Place",
    "city": "Torrance",
    "state": "California",
    "zip": "90510"
  }
}, {
  "id": 27,
  "name": "Greg Woodyatt",
  "phone": "1-(517)533-4136",
  "address": {
    "street": "32 Delladonna Parkway",
    "city": "Lansing",
    "state": "Michigan",
    "zip": "48912"
  }
}, {
  "id": 28,
  "name": "Rochella Kettlesting",
  "phone": "1-(818)184-8158",
  "address": {
    "street": "8303 Toban Terrace",
    "city": "Glendale",
    "state": "California",
    "zip": "91210"
  }
}, {
  "id": 29,
  "name": "Gaylene Lampard",
  "phone": "1-(641)148-3824",
  "address": {
    "street": "54 Mayfield Crossing",
    "city": "Des Moines",
    "state": "Iowa",
    "zip": "50315"
  }
}, {
  "id": 30,
  "name": "Mikol Gooderidge",
  "phone": "1-(562)153-4035",
  "address": {
    "street": "9789 Arizona Alley",
    "city": "Long Beach",
    "state": "California",
    "zip": "90831"
  }
}, {
  "id": 31,
  "name": "Adelina Carnihan",
  "phone": "1-(614)819-2465",
  "address": {
    "street": "90 Lillian Pass",
    "city": "Columbus",
    "state": "Ohio",
    "zip": "43231"
  }
}, {
  "id": 32,
  "name": "Lester Scane",
  "phone": "1-(386)976-4155",
  "address": {
    "street": "26004 Ridgeview Drive",
    "city": "Daytona Beach",
    "state": "Florida",
    "zip": "32123"
  }
}, {
  "id": 33,
  "name": "Kathi Poulston",
  "phone": "1-(909)529-7196",
  "address": {
    "street": "49 Pearson Avenue",
    "city": "San Bernardino",
    "state": "California",
    "zip": "92405"
  }
}, {
  "id": 34,
  "name": "Merry Codrington",
  "phone": "1-(773)910-2733",
  "address": {
    "street": "7805 Fremont Center",
    "city": "Chicago",
    "state": "Illinois",
    "zip": "60624"
  }
}, {
  "id": 35,
  "name": "Lek Trewett",
  "phone": "1-(843)466-1064",
  "address": {
    "street": "956 Portage Court",
    "city": "Charleston",
    "state": "South Carolina",
    "zip": "29411"
  }
}, {
  "id": 36,
  "name": "Derk Hunsworth",
  "phone": "1-(414)655-6885",
  "address": {
    "street": "75 Thackeray Road",
    "city": "Milwaukee",
    "state": "Wisconsin",
    "zip": "53205"
  }
}, {
  "id": 37,
  "name": "Geneva Denizet",
  "phone": "1-(702)885-0889",
  "address": {
    "street": "88 High Crossing Alley",
    "city": "Las Vegas",
    "state": "Nevada",
    "zip": "89160"
  }
}, {
  "id": 38,
  "name": "Andriana Nickerson",
  "phone": "1-(415)638-5012",
  "address": {
    "street": "6 Susan Pass",
    "city": "San Francisco",
    "state": "California",
    "zip": "94121"
  }
}, {
  "id": 39,
  "name": "Leticia Gilding",
  "phone": "1-(214)648-5376",
  "address": {
    "street": "8 Michigan Trail",
    "city": "Dallas",
    "state": "Texas",
    "zip": "75353"
  }
}, {
  "id": 40,
  "name": "Geneva Scroggins",
  "phone": "1-(607)879-8644",
  "address": {
    "street": "124 Sugar Street",
    "city": "Elmira",
    "state": "New York",
    "zip": "14905"
  }
}, {
  "id": 41,
  "name": "Christin Partkya",
  "phone": "1-(510)568-1008",
  "address": {
    "street": "3959 Buhler Crossing",
    "city": "Sacramento",
    "state": "California",
    "zip": "95823"
  }
}, {
  "id": 42,
  "name": "Whitman Ivantyev",
  "phone": "1-(806)248-1821",
  "address": {
    "street": "66266 Gina Way",
    "city": "Amarillo",
    "state": "Texas",
    "zip": "79176"
  }
}, {
  "id": 43,
  "name": "Kristel Indge",
  "phone": "1-(361)988-5313",
  "address": {
    "street": "08954 Luster Hill",
    "city": "Corpus Christi",
    "state": "Texas",
    "zip": "78465"
  }
}, {
  "id": 44,
  "name": "Inge Goodchild",
  "phone": "1-(918)143-8533",
  "address": {
    "street": "5 Coolidge Way",
    "city": "Tulsa",
    "state": "Oklahoma",
    "zip": "74170"
  }
}, {
  "id": 45,
  "name": "Elbertina Nys",
  "phone": "1-(908)680-1994",
  "address": {
    "street": "6393 Larry Lane",
    "city": "Elizabeth",
    "state": "New Jersey",
    "zip": "07208"
  }
}, {
  "id": 46,
  "name": "Germaine Rubery",
  "phone": "1-(936)899-3729",
  "address": {
    "street": "63 Village Green Pass",
    "city": "Beaumont",
    "state": "Texas",
    "zip": "77713"
  }
}, {
  "id": 47,
  "name": "Reggis Geggus",
  "phone": "1-(901)738-8642",
  "address": {
    "street": "19 Forest Place",
    "city": "Memphis",
    "state": "Tennessee",
    "zip": "38126"
  }
}, {
  "id": 48,
  "name": "Rafaellle Brounfield",
  "phone": "1-(323)361-4936",
  "address": {
    "street": "49778 Lawn Plaza",
    "city": "Glendale",
    "state": "California",
    "zip": "91205"
  }
}, {
  "id": 49,
  "name": "Bunny Lankham",
  "phone": "1-(843)838-6180",
  "address": {
    "street": "0 Sage Junction",
    "city": "Charleston",
    "state": "South Carolina",
    "zip": "29403"
  }
}, {
  "id": 50,
  "name": "Reeva Poulett",
  "phone": "1-(770)128-6911",
  "address": {
    "street": "5 Pine View Point",
    "city": "Atlanta",
    "state": "Georgia",
    "zip": "30323"
  }
}, {
  "id": 51,
  "name": "Nigel Shinton",
  "phone": "1-(856)598-3224",
  "address": {
    "street": "12 Dunning Crossing",
    "city": "Camden",
    "state": "New Jersey",
    "zip": "08104"
  }
}, {
  "id": 52,
  "name": "Kahlil Southeran",
  "phone": "1-(763)697-2751",
  "address": {
    "street": "81 Service Court",
    "city": "Monticello",
    "state": "Minnesota",
    "zip": "55590"
  }
}, {
  "id": 53,
  "name": "Harlie Dryden",
  "phone": "1-(307)715-1086",
  "address": {
    "street": "66520 Eastlawn Terrace",
    "city": "Cheyenne",
    "state": "Wyoming",
    "zip": "82007"
  }
}, {
  "id": 54,
  "name": "Sheff Ramsden",
  "phone": "1-(218)442-7353",
  "address": {
    "street": "134 1st Terrace",
    "city": "Duluth",
    "state": "Minnesota",
    "zip": "55811"
  }
}, {
  "id": 55,
  "name": "Lilla Phillipp",
  "phone": "1-(239)454-7548",
  "address": {
    "street": "878 Reindahl Pass",
    "city": "Fort Myers",
    "state": "Florida",
    "zip": "33913"
  }
}, {
  "id": 56,
  "name": "Clarabelle Leftly",
  "phone": "1-(337)408-1159",
  "address": {
    "street": "89925 Ilene Hill",
    "city": "Lake Charles",
    "state": "Louisiana",
    "zip": "70607"
  }
}, {
  "id": 57,
  "name": "Benjamen Enevoldsen",
  "phone": "1-(918)702-6389",
  "address": {
    "street": "541 Bellgrove Hill",
    "city": "Tulsa",
    "state": "Oklahoma",
    "zip": "74116"
  }
}, {
  "id": 58,
  "name": "Sutton Lemary",
  "phone": "1-(913)720-2888",
  "address": {
    "street": "07 Stang Center",
    "city": "Shawnee Mission",
    "state": "Kansas",
    "zip": "66215"
  }
}, {
  "id": 59,
  "name": "Gabie McCoughan",
  "phone": "1-(405)807-5789",
  "address": {
    "street": "33653 Susan Point",
    "city": "Oklahoma City",
    "state": "Oklahoma",
    "zip": "73119"
  }
}, {
  "id": 60,
  "name": "Any McCrea",
  "phone": "1-(401)801-2407",
  "address": {
    "street": "4661 Ruskin Alley",
    "city": "Providence",
    "state": "Rhode Island",
    "zip": "02912"
  }
}, {
  "id": 61,
  "name": "Stirling Gartery",
  "phone": "1-(773)351-3701",
  "address": {
    "street": "64 Lakeland Pass",
    "city": "Chicago",
    "state": "Illinois",
    "zip": "60609"
  }
}, {
  "id": 62,
  "name": "Christoforo Easom",
  "phone": "1-(432)970-5927",
  "address": {
    "street": "01 Fallview Court",
    "city": "Midland",
    "state": "Texas",
    "zip": "79710"
  }
}, {
  "id": 63,
  "name": "Wade Neiland",
  "phone": "1-(608)954-0518",
  "address": {
    "street": "7167 Monument Lane",
    "city": "Madison",
    "state": "Wisconsin",
    "zip": "53790"
  }
}, {
  "id": 64,
  "name": "Remington Shovelton",
  "phone": "1-(484)437-6872",
  "address": {
    "street": "911 Di Loreto Road",
    "city": "Reading",
    "state": "Pennsylvania",
    "zip": "19610"
  }
}, {
  "id": 65,
  "name": "Cesar Patrickson",
  "phone": "1-(334)996-2210",
  "address": {
    "street": "614 Rieder Court",
    "city": "Birmingham",
    "state": "Alabama",
    "zip": "35210"
  }
}, {
  "id": 66,
  "name": "Drusie Dallman",
  "phone": "1-(682)167-9836",
  "address": {
    "street": "10 Lakeland Plaza",
    "city": "Fort Worth",
    "state": "Texas",
    "zip": "76178"
  }
}, {
  "id": 67,
  "name": "Maurie Florey",
  "phone": "1-(919)393-9511",
  "address": {
    "street": "6 Mayer Avenue",
    "city": "Raleigh",
    "state": "North Carolina",
    "zip": "27635"
  }
}, {
  "id": 68,
  "name": "Shaughn Standbrooke",
  "phone": "1-(251)132-0361",
  "address": {
    "street": "7 Loftsgordon Crossing",
    "city": "Mobile",
    "state": "Alabama",
    "zip": "36628"
  }
}, {
  "id": 69,
  "name": "Berkeley Tynnan",
  "phone": "1-(901)605-9924",
  "address": {
    "street": "04065 Jenna Place",
    "city": "Memphis",
    "state": "Tennessee",
    "zip": "38114"
  }
}, {
  "id": 70,
  "name": "Evangelia Consadine",
  "phone": "1-(916)864-9481",
  "address": {
    "street": "49556 Waxwing Pass",
    "city": "Sacramento",
    "state": "California",
    "zip": "95828"
  }
}, {
  "id": 71,
  "name": "Israel Blincowe",
  "phone": "1-(337)883-1751",
  "address": {
    "street": "66113 Prentice Way",
    "city": "Lafayette",
    "state": "Louisiana",
    "zip": "70593"
  }
}, {
  "id": 72,
  "name": "Gabi Bartolomeazzi",
  "phone": "1-(813)427-4751",
  "address": {
    "street": "9613 Sugar Road",
    "city": "Tampa",
    "state": "Florida",
    "zip": "33620"
  }
}, {
  "id": 73,
  "name": "Rozele Bartak",
  "phone": "1-(512)131-4749",
  "address": {
    "street": "05578 John Wall Way",
    "city": "Austin",
    "state": "Texas",
    "zip": "78754"
  }
}, {
  "id": 74,
  "name": "Lucien Degli Abbati",
  "phone": "1-(818)258-6946",
  "address": {
    "street": "563 Arrowood Avenue",
    "city": "Burbank",
    "state": "California",
    "zip": "91505"
  }
}, {
  "id": 75,
  "name": "Tommy Clothier",
  "phone": "1-(941)545-0584",
  "address": {
    "street": "57 Susan Pass",
    "city": "Sarasota",
    "state": "Florida",
    "zip": "34276"
  }
}, {
  "id": 76,
  "name": "Ted Suggitt",
  "phone": "1-(774)480-1198",
  "address": {
    "street": "77 Myrtle Park",
    "city": "Worcester",
    "state": "Massachusetts",
    "zip": "01610"
  }
}, {
  "id": 77,
  "name": "Audrye Bagshawe",
  "phone": "1-(803)846-1421",
  "address": {
    "street": "898 Hovde Pass",
    "city": "Columbia",
    "state": "South Carolina",
    "zip": "29225"
  }
}, {
  "id": 78,
  "name": "Jamie Habbijam",
  "phone": "1-(213)955-1770",
  "address": {
    "street": "42 Carioca Point",
    "city": "Los Angeles",
    "state": "California",
    "zip": "90050"
  }
}, {
  "id": 79,
  "name": "Allen Kenright",
  "phone": "1-(203)767-9209",
  "address": {
    "street": "2 Valley Edge Circle",
    "city": "Waterbury",
    "state": "Connecticut",
    "zip": "06721"
  }
}, {
  "id": 80,
  "name": "Brittne Owttrim",
  "phone": "1-(734)923-2172",
  "address": {
    "street": "4 Monica Way",
    "city": "Detroit",
    "state": "Michigan",
    "zip": "48242"
  }
}, {
  "id": 81,
  "name": "Roscoe Andover",
  "phone": "1-(408)954-2691",
  "address": {
    "street": "27 Carioca Hill",
    "city": "San Jose",
    "state": "California",
    "zip": "95118"
  }
}, {
  "id": 82,
  "name": "Dani Storrar",
  "phone": "1-(808)390-0138",
  "address": {
    "street": "66970 Parkside Way",
    "city": "Honolulu",
    "state": "Hawaii",
    "zip": "96825"
  }
}, {
  "id": 83,
  "name": "Natka Long",
  "phone": "1-(757)276-3681",
  "address": {
    "street": "6 Bluestem Plaza",
    "city": "Virginia Beach",
    "state": "Virginia",
    "zip": "23464"
  }
}, {
  "id": 84,
  "name": "Abel Calver",
  "phone": "1-(706)540-6767",
  "address": {
    "street": "1 Rigney Pass",
    "city": "Athens",
    "state": "Georgia",
    "zip": "30610"
  }
}, {
  "id": 85,
  "name": "Vick Sleney",
  "phone": "1-(323)399-9260",
  "address": {
    "street": "269 Pierstorff Drive",
    "city": "Los Angeles",
    "state": "California",
    "zip": "90094"
  }
}, {
  "id": 86,
  "name": "Roma Paszek",
  "phone": "1-(269)501-4182",
  "address": {
    "street": "22 Sachs Avenue",
    "city": "Battle Creek",
    "state": "Michigan",
    "zip": "49018"
  }
}, {
  "id": 87,
  "name": "Sawyer Chaters",
  "phone": "1-(407)875-8206",
  "address": {
    "street": "7795 Melrose Way",
    "city": "Orlando",
    "state": "Florida",
    "zip": "32868"
  }
}, {
  "id": 88,
  "name": "Kory Anthona",
  "phone": "1-(702)712-5747",
  "address": {
    "street": "162 Calypso Terrace",
    "city": "Las Vegas",
    "state": "Nevada",
    "zip": "89145"
  }
}, {
  "id": 89,
  "name": "Thaddus Everall",
  "phone": "1-(302)310-0878",
  "address": {
    "street": "4096 Buhler Pass",
    "city": "Wilmington",
    "state": "Delaware",
    "zip": "19892"
  }
}, {
  "id": 90,
  "name": "Angie Barszczewski",
  "phone": "1-(361)581-9684",
  "address": {
    "street": "7 Sunnyside Center",
    "city": "Corpus Christi",
    "state": "Texas",
    "zip": "78475"
  }
}, {
  "id": 91,
  "name": "Florrie Figure",
  "phone": "1-(219)329-0692",
  "address": {
    "street": "4 International Street",
    "city": "Gary",
    "state": "Indiana",
    "zip": "46406"
  }
}, {
  "id": 92,
  "name": "Ibrahim McCole",
  "phone": "1-(713)587-5946",
  "address": {
    "street": "575 Arrowood Place",
    "city": "Houston",
    "state": "Texas",
    "zip": "77218"
  }
}, {
  "id": 93,
  "name": "Leigh Fitzgerald",
  "phone": "1-(248)771-7101",
  "address": {
    "street": "154 Packers Place",
    "city": "Southfield",
    "state": "Michigan",
    "zip": "48076"
  }
}, {
  "id": 94,
  "name": "Shay Aven",
  "phone": "1-(312)920-9055",
  "address": {
    "street": "44400 Grasskamp Point",
    "city": "Chicago",
    "state": "Illinois",
    "zip": "60686"
  }
}, {
  "id": 95,
  "name": "Albrecht Pender",
  "phone": "1-(626)606-9088",
  "address": {
    "street": "3347 Service Park",
    "city": "Pasadena",
    "state": "California",
    "zip": "91186"
  }
}, {
  "id": 96,
  "name": "Saraann Cota",
  "phone": "1-(916)225-5955",
  "address": {
    "street": "7092 Anniversary Junction",
    "city": "Sacramento",
    "state": "California",
    "zip": "95828"
  }
}, {
  "id": 97,
  "name": "Field Reynard",
  "phone": "1-(410)285-5015",
  "address": {
    "street": "3145 Duke Way",
    "city": "Baltimore",
    "state": "Maryland",
    "zip": "21265"
  }
}, {
  "id": 98,
  "name": "Mordecai McVity",
  "phone": "1-(212)149-7620",
  "address": {
    "street": "96 Dennis Terrace",
    "city": "New York City",
    "state": "New York",
    "zip": "10170"
  }
}, {
  "id": 99,
  "name": "Hort Coggins",
  "phone": "1-(305)802-9663",
  "address": {
    "street": "49 Saint Paul Place",
    "city": "Miami",
    "state": "Florida",
    "zip": "33283"
  }
}, {
  "id": 100,
  "name": "Erasmus Cornewell",
  "phone": "1-(719)318-1789",
  "address": {
    "street": "24086 Del Mar Circle",
    "city": "Colorado Springs",
    "state": "Colorado",
    "zip": "80995"
  }
}]